#dP2020  2 20  0  0  0.00000000      96 __u+U ITR00 FIT  IAC
## 2093 345600.00000000   900.00000000 58899 0.0000000000000
+  106   C06C07C08C09C10C11C12C13C14C16C19C20C21C22C23C24C25
+        C26C27C28C29C30C32C33C34C35C36C37E01E02E03E04E05E07
+        E08E09E11E12E13E14E15E18E19E21E24E25E26E27E30E31E33
+        E36G01G02G03G04G05G06G07G08G09G10G11G12G13G14G15G16
+        G17G18G19G20G21G22G23G24G25G26G27G28G29G30G31G32R01
+        R02R03R04R05R07R08R09R11R12R13R14R15R16R17R18R19R20
+        R21R22R23R26  0  0  0  0  0  0  0  0  0  0  0  0  0
++         8  8  8  8  8  8  8  8  8  8  9  7  8  8  8  8  8
++         8  8  8  8  8  8  8  8  8  8  8  5  4  5  4  4  4
++         5  4  4  4  5  4  5  4  4  4  4  4  4  4  4  4  5
++         4  3  3  4  4  3  3  4  4  4  4  4  3  4  4  4  3
++         3  4  3  4  4  3  3  4  4  4  4  3  4  3  3  3  6
++         6  6  5  5  5  5  5  5  6  6  5  6  6  6  6  6  6
++         5  5  5  8  0  0  0  0  0  0  0  0  0  0  0  0  0
%c M  cc GPS ccc cccc cccc cccc cccc ccccc ccccc ccccc ccccc
%c cc cc ccc ccc cccc cccc cccc cccc ccccc ccccc ccccc ccccc
%f  0.0000000  0.000000000  0.00000000000  0.000000000000000
%f  0.0000000  0.000000000  0.00000000000  0.000000000000000
%i    0    0    0    0      0      0      0      0         0
%i    0    0    0    0      0      0      0      0         0
/* INFORMATION & ANALYSIS CENTER (IAC)      ULTRA-RAPID DATA
/* S/V CLOCKS ARE ALIGNED TO GNSS TIME                      
/* G:C1WC2W R:C1PC2P E:C1XC5X C:C2IC6I J:C1CC2S             
/* PCV:IGS14_2091 OL/AL:FES2004  NONE     YN ORB:CoN CLK:CoN
*  2020 02 20 22 30  0.00000000
PC06  -6121.512580  29670.242197  29852.745668    244.372032
PC07 -21657.571609  24391.635558 -26757.424735    -86.929874
PC08 -18876.958607  37431.506470  -2101.315041   -125.314957
PC09   4600.276976  36564.981010  21056.409665    348.395636
PC10  -6830.538166  26479.868750 -31989.403921   -680.417013
PC11  10798.623494 -13936.191278  21707.704299   -194.446211
PC12  16731.979193   6942.077389  21260.019009    321.588864
PC13  -9626.397038  39406.455369  11086.137873    278.906893
PC14  20064.936418  -8114.016661 -17557.459690    171.574294
PC16  -2741.193876  31129.125627  28439.706245   -767.694762
PC19 -11233.841220  13136.094120  21936.773324    330.987548
PC20 -25510.630551   2289.612682  11126.671487   -742.569642
PC21  25024.567189  10355.700675   6709.946485    -95.751677
PC22   9807.017630  16576.310561  20189.721729   -886.662339
PC23    188.034118 -20148.114345  19307.564316   -896.936275
PC24  22499.709540 -11045.836793 -12309.668890   -932.924302
PC25  15326.150966 -22714.766801   5336.218290   -522.792735
PC26  16216.949631   5369.362021 -22079.012869    578.850927
PC27 -16093.296410 -16530.908745 -15694.511834    282.022522
PC28  -7219.827842 -26946.303013    821.486017    272.961629
PC29  -5003.026613  21764.681866 -16738.885823    190.548252
PC30 -15471.440966   3784.771613 -22909.823145    275.111788
PC32 -25131.440419 -10143.983457  -6650.903035 999999.999999
PC33  11223.078188 -13181.261899 -21877.278812   -932.528226
PC34  15402.474587  -4157.679297  22895.633962   -486.600360
PC35   8053.994874  26723.071837   -938.896952   -897.268494
PC36 -15993.354588  22283.281469  -5118.600674   -827.925240
PC37 -15635.543428  -6363.997944  22231.678740   -875.847627
PE01 -26049.162540    718.068807  14028.023347   -799.052576
PE02  26098.339115   -783.544112 -13966.818696    114.138304
PE03  25708.034447  10388.542546 -10347.049162   -268.519341
PE04 -17828.483082   6625.991721  22682.897447   -469.910416
PE05  18604.289958  21512.581461   8201.148354   -403.675362
PE07   -683.751724 -19986.317233 -21821.980450   -343.789393
PE08  17548.473428  -6810.935887 -22841.254446   6217.473616
PE09    957.398748  19899.820904  21890.042201   6149.781893
PE11  -4968.893403  29101.056565  -2288.331269   1359.589730
PE12 -14830.577831  16871.214496 -19276.477360   5941.408440
PE13   5006.173097 -29057.963926   2565.913382    398.544005
PE14  -6651.776471  22141.228798 -21387.165007   -912.721462
PE15  14650.694768 -17102.920803  19221.371660    876.589603
PE18  -4983.607858 -23093.601783   9610.546136  -1010.219823
PE19 -25666.913835 -12040.878833   8503.113520     -1.446349
PE21 -11249.184707 -12763.755480  24216.694811   -583.790069
PE24 -10431.042688  18924.337494 -20230.793719   5599.622826
PE25  11150.918111  12819.381823 -24237.198002   -504.509826
PE26  -7705.735958 -23822.936819 -15776.452482   3506.183020
PE27  10304.591870 -18944.790915  20281.126452    278.108072
PE30  25877.789881 -13744.002494   4258.701578   4127.303500
PE31 -25709.722634  13970.262454  -4449.439880   -471.773717
PE33 -15698.762894  -4884.689615 -24599.183508   -470.181223
PE36   7599.494611  23970.781456  15633.357424    595.717173
PG01  14424.646216 -20948.092648   6823.917546   -301.467050
PG02 -15857.817105   1186.001223 -20620.863510   -408.440323
PG03  16698.823297 -12988.619111 -16055.962495    -99.300153
PG04   7063.677865 -15194.498124 -20595.400526    -51.698765
PG05 -26482.801190   1719.521484  -2740.732790     -7.914228
PG06 -10541.517620 -11706.941262 -21322.869577   -213.356125
PG07   3545.194713 -24342.144507   9652.687546   -218.975742
PG08  14856.360175  -4822.868616  21541.018683    -24.472294
PG09  -2854.996296 -21644.063157 -15172.583648   -160.084959
PG10  13496.082475  12121.530925  19559.311257   -252.031620
PG11  13219.730338 -14021.926765  17899.303941 999999.999999
PG12 -19747.327140  10470.356806 -14443.027011    149.043139
PG13 -17601.288875  -4311.794925  19322.538360    -11.372528
PG14  18151.067236  16921.246936  -9387.213083    -31.178089
PG15 -14582.100912   7056.796331  20783.699693   -250.182297
PG16  26685.543724   1152.013880  -2517.191597   -126.689399
PG17 -14284.762674 -22423.753667    367.133482    219.446434
PG18  16152.360190 -15541.046442  13673.534957      3.604625
PG19 -17316.812769 -18430.187220  -8405.141763   -195.963247
PG20   1897.544054  15718.417063  21228.596298    527.872091
PG21   -348.136541  24505.678446  11331.417534    -38.247882
PG22  22639.246710 -10747.348355  -8394.984515   -784.872627
PG23   5902.621540 -15996.753913 -19911.773759   -134.957286
PG24 -14457.466959  20114.747321   8874.154581     -9.350375
PG25  -7576.877643  15125.421141 -20636.207200    -12.386547
PG26  23439.551110   5140.064372 -11649.079221    152.443726
PG27  19249.859424   6826.861032  17035.287595   -216.941267
PG28 -13521.115798 -12849.951485  19442.881239    737.937276
PG29    601.729606  21032.434281 -16231.538548    -38.025070
PG30  -5068.076719 -19150.254614  17626.906375   -157.916441
PG31  12580.526921   8959.078960 -21612.139127    -24.538061
PG32  16213.455345  21126.689819   -555.125337    217.498172
PR01  13660.627544  -5272.881671 -20882.173227     57.397088
PR02  -7567.634812 -13677.372206 -20100.907882    412.946197
PR03 -21271.041290 -12494.437957  -6350.562848     10.327031
PR04 -22686.859662  -4216.924963  10892.913819     39.428301
PR05 -11223.277813   6378.162408  22005.073633     45.377692
PR07  21532.738761  12398.269468   5899.142596    -33.453000
PR08  22722.600444   4289.443729 -10733.365152    -50.619364
PR09  -1686.427890  14182.237299 -21140.208210    117.885169
PR11  21043.743714  -8881.112671 -11304.950187    -14.161444
PR12  18416.182013 -16865.880810   5296.942119    107.471166
PR13   4865.692419 -15450.518188  19684.664603    -35.042848
PR14 -11318.354032  -4931.559007  22328.698643     48.351905
PR15 -20859.571026   8277.714826  12132.533610    105.981855
PR16 -17773.604317  17286.080899  -5733.483930     -1.607290
PR17  -9055.186804 -18358.213584 -15226.654064    302.702425
PR18 -10648.025715  -1409.813577 -23111.840968     25.826451
PR19  -7070.795520  15722.162291 -18794.837941    -80.079100
PR20   1388.432620  25438.145320  -1713.262874   -404.629611
PR21   9209.952458  17638.898859  15953.730514   -106.241400
PR22  10350.151425  -1460.790887  23278.037975    -14.794573
PR23   4229.507878 -20754.485770  14208.871083    287.693476
PR26    -60.066926  24783.228175  -5971.123848   -406.084820
EOF
